ONEWEB-0395             
1 50475U 21132G   25256.89644244 -.00000199  00000+0 -59688-3 0  9990
2 50475  87.8771  76.1243 0001926  95.9872 264.1475 13.11407751179503
ONEWEB-0396             
1 50476U 21132H   25256.90076490  .00000023  00000+0  25849-4 0  9992
2 50476  87.9189  30.3122 0001836  95.5171 264.6171 13.18687584185229
ONEWEB-0397             
1 50477U 21132J   25256.91562242 -.00000035  00000+0 -12209-3 0  9999
2 50477  87.9187  30.3103 0001800  91.0711 269.0627 13.18685766185202
ONEWEB-0398             
1 50478U 21132K   25256.94052131  .00000051  00000+0  10871-3 0  9993
2 50478  87.8785  76.0811 0001474  95.5792 264.5504 13.11421111179408
ONEWEB-0399             
1 50479U 21132L   25256.92695063 -.00000209  00000+0 -62567-3 0  9995
2 50479  87.8775  76.1051 0002186  82.2513 277.8863 13.11417299179395
ONEWEB-0400             
1 50480U 21132M   25256.89417450 -.00000010  00000+0 -57241-4 0  9999
2 50480  87.9188  30.3046 0001777 104.7734 255.3595 13.18685424185194
ONEWEB-0401             
1 50481U 21132N   25256.93872244 -.00000006  00000+0 -47646-4 0  9994
2 50481  87.9191  30.2923 0001659  91.2656 268.8666 13.18686770185209
ONEWEB-0402             
1 50482U 21132P   25256.90243597  .00000040  00000+0  69080-4 0  9997
2 50482  87.9187  30.2928 0001430  77.1382 282.9910 13.18686185185227
